O3B FM17                
1 44114U 19020C   26087.36348340 -.00000029  00000+0  00000+0 0  9990
2 44114   0.0364 346.5539 0002563  20.5809 352.8642  5.00115394127484
O3B FM18                
1 44115U 19020D   26087.50967308 -.00000029  00000+0  00000+0 0  9998
2 44115   0.0531   0.9519 0002728   5.7104 353.3366  5.00115240127610
SES-17                  
1 49332U 21095A   26087.53144664 -.00000292  00000+0  00000+0 0  9996
2 49332   0.0439  20.0904 0001019 336.3233 313.7395  1.00269425 17040
SES-22                  
1 52933U 22071A   26087.51642039  .00000085  00000+0  00000+0 0  9998
2 52933   0.0192  99.3022 0001355 266.6783 226.8352  1.00273279  6716
SES-20                  
1 53960U 22123A   26087.51086254 -.00000121  00000+0  00000+0 0  9990
2 53960   0.0301  92.6008 0001507 326.1773 207.9425  1.00273465 12725
SES-21                  
1 53961U 22123B   26087.30489972  .00000049  00000+0  00000+0 0  9990
2 53961   0.0266  72.2465 0001180 285.3890 166.8480  1.00274783  6406
O3B MPOWER F1           
1 54755U 22174A   26086.72413699 -.00000028  00000+0  00000+0 0  9994
2 54755   0.0628 349.5987 0005535  34.9077 220.5631  5.00114858 61285
O3B MPOWER F2           
1 54756U 22174B   26087.35428482 -.00000029  00000+0  00000+0 0  9992
2 54756   0.0601 346.6793 0005942  19.1905 354.1325  5.00115489 61406
SES-18                  
1 55970U 23038A   26087.51086254 -.00000120  00000+0  00000+0 0  9998
2 55970   0.0208 253.9260 0002040  65.8003 306.9965  1.00270694 11293
SES-19                  
1 55971U 23038B   26087.51642039  .00000068  00000+0  00000+0 0  9998
2 55971   0.0423 278.2394 0001829  82.7197 235.9764  1.00273053 11275
O3B MPOWER F4           
1 56367U 23059A   26086.81895932 -.00000028  00000+0  00000+0 0  9992
2 56367   0.0636   5.1501 0006938  15.6924 339.1813  5.00116069 54532
O3B MPOWER F3           
1 56368U 23059B   26087.25204795 -.00000029  00000+0  00000+0 0  9994
2 56368   0.0649   5.1389 0006572   5.5978 349.2727  5.00116702 50673
O3B MPOWER F5           
1 58346U 23175A   26086.75304408 -.00000028  00000+0  00000+0 0  9996
2 58346   0.0420   7.5811 0004224   7.1636 345.2630  5.00115692 45361
O3B MPOWER F6           
1 58347U 23175B   26087.45341896 -.00000029  00000+0  00000+0 0  9998
2 58347   0.0497   4.8139 0004933 350.3738   4.8029  5.00116355 44302
ASTRA 1P (SES-24)       
1 60086U 24115A   26087.54852005  .00000100  00000+0  00000+0 0  9994
2 60086   0.0627  14.9722 0003802 303.7059  83.9273  1.00271876  6383
O3B MPOWER F7           
1 62362U 24244A   26087.51963028 -.00000029  00000+0  00000+0 0  9992
2 62362   0.0716   2.0186 0006104   3.6220 354.3616  5.00115127 22482
O3B MPOWER F8           
1 62363U 24244B   26087.48659067 -.00000029  00000+0  00000+0 0  9994
2 62363   0.0440 315.4923 0006452  42.9746   1.5264  5.00115612 16833
