[{"OBJECT_NAME":"O3B FM17","OBJECT_ID":"2019-020C","EPOCH":"2026-03-28T08:43:24.965760","MEAN_MOTION":5.00115394,"ECCENTRICITY":0.0002563,"INCLINATION":0.0364,"RA_OF_ASC_NODE":346.5539,"ARG_OF_PERICENTER":20.5809,"MEAN_ANOMALY":352.8642,"EPHEMERIS_TYPE":0,"CLASSIFICATION_TYPE":"U","NORAD_CAT_ID":44114,"ELEMENT_SET_NO":999,"REV_AT_EPOCH":12748,"BSTAR":0,"MEAN_MOTION_DOT":-2.9e-7,"MEAN_MOTION_DDOT":0},{"OBJECT_NAME":"O3B FM18","OBJECT_ID":"2019-020D","EPOCH":"2026-03-28T12:13:55.754112","MEAN_MOTION":5.0011524,"ECCENTRICITY":0.00027285,"INCLINATION":0.0531,"RA_OF_ASC_NODE":0.9519,"ARG_OF_PERICENTER":5.7104,"MEAN_ANOMALY":353.3366,"EPHEMERIS_TYPE":0,"CLASSIFICATION_TYPE":"U","NORAD_CAT_ID":44115,"ELEMENT_SET_NO":999,"REV_AT_EPOCH":12761,"BSTAR":0,"MEAN_MOTION_DOT":-2.9e-7,"MEAN_MOTION_DDOT":0},{"OBJECT_NAME":"SES-17","OBJECT_ID":"2021-095A","EPOCH":"2026-03-28T12:45:16.989696","MEAN_MOTION":1.00269425,"ECCENTRICITY":0.00010198,"INCLINATION":0.0439,"RA_OF_ASC_NODE":20.0904,"ARG_OF_PERICENTER":336.3233,"MEAN_ANOMALY":313.7395,"EPHEMERIS_TYPE":0,"CLASSIFICATION_TYPE":"U","NORAD_CAT_ID":49332,"ELEMENT_SET_NO":999,"REV_AT_EPOCH":1704,"BSTAR":0,"MEAN_MOTION_DOT":-2.92e-6,"MEAN_MOTION_DDOT":0},{"OBJECT_NAME":"SES-22","OBJECT_ID":"2022-071A","EPOCH":"2026-03-28T12:23:38.721696","MEAN_MOTION":1.00273279,"ECCENTRICITY":0.0001355,"INCLINATION":0.0192,"RA_OF_ASC_NODE":99.3022,"ARG_OF_PERICENTER":266.6783,"MEAN_ANOMALY":226.8352,"EPHEMERIS_TYPE":0,"CLASSIFICATION_TYPE":"U","NORAD_CAT_ID":52933,"ELEMENT_SET_NO":999,"REV_AT_EPOCH":671,"BSTAR":0,"MEAN_MOTION_DOT":8.5e-7,"MEAN_MOTION_DDOT":0},{"OBJECT_NAME":"SES-20","OBJECT_ID":"2022-123A","EPOCH":"2026-03-28T12:15:38.523456","MEAN_MOTION":1.00273465,"ECCENTRICITY":0.0001507,"INCLINATION":0.0301,"RA_OF_ASC_NODE":92.6008,"ARG_OF_PERICENTER":326.1773,"MEAN_ANOMALY":207.9425,"EPHEMERIS_TYPE":0,"CLASSIFICATION_TYPE":"U","NORAD_CAT_ID":53960,"ELEMENT_SET_NO":999,"REV_AT_EPOCH":1272,"BSTAR":0,"MEAN_MOTION_DOT":-1.21e-6,"MEAN_MOTION_DDOT":0},{"OBJECT_NAME":"SES-21","OBJECT_ID":"2022-123B","EPOCH":"2026-03-28T07:19:03.335808","MEAN_MOTION":1.00274783,"ECCENTRICITY":0.00011804,"INCLINATION":0.0266,"RA_OF_ASC_NODE":72.2465,"ARG_OF_PERICENTER":285.389,"MEAN_ANOMALY":166.848,"EPHEMERIS_TYPE":0,"CLASSIFICATION_TYPE":"U","NORAD_CAT_ID":53961,"ELEMENT_SET_NO":999,"REV_AT_EPOCH":640,"BSTAR":0,"MEAN_MOTION_DOT":4.9e-7,"MEAN_MOTION_DDOT":0},{"OBJECT_NAME":"O3B MPOWER F1","OBJECT_ID":"2022-174A","EPOCH":"2026-03-27T17:22:45.435936","MEAN_MOTION":5.00114858,"ECCENTRICITY":0.00055351,"INCLINATION":0.0628,"RA_OF_ASC_NODE":349.5987,"ARG_OF_PERICENTER":34.9077,"MEAN_ANOMALY":220.5631,"EPHEMERIS_TYPE":0,"CLASSIFICATION_TYPE":"U","NORAD_CAT_ID":54755,"ELEMENT_SET_NO":999,"REV_AT_EPOCH":6128,"BSTAR":0,"MEAN_MOTION_DOT":-2.8e-7,"MEAN_MOTION_DDOT":0},{"OBJECT_NAME":"O3B MPOWER F2","OBJECT_ID":"2022-174B","EPOCH":"2026-03-28T08:30:10.208448","MEAN_MOTION":5.00115489,"ECCENTRICITY":0.0005942,"INCLINATION":0.0601,"RA_OF_ASC_NODE":346.6793,"ARG_OF_PERICENTER":19.1905,"MEAN_ANOMALY":354.1325,"EPHEMERIS_TYPE":0,"CLASSIFICATION_TYPE":"U","NORAD_CAT_ID":54756,"ELEMENT_SET_NO":999,"REV_AT_EPOCH":6140,"BSTAR":0,"MEAN_MOTION_DOT":-2.9e-7,"MEAN_MOTION_DDOT":0},{"OBJECT_NAME":"SES-18","OBJECT_ID":"2023-038A","EPOCH":"2026-03-28T12:15:38.523456","MEAN_MOTION":1.00270694,"ECCENTRICITY":0.000204,"INCLINATION":0.0208,"RA_OF_ASC_NODE":253.926,"ARG_OF_PERICENTER":65.8003,"MEAN_ANOMALY":306.9965,"EPHEMERIS_TYPE":0,"CLASSIFICATION_TYPE":"U","NORAD_CAT_ID":55970,"ELEMENT_SET_NO":999,"REV_AT_EPOCH":1129,"BSTAR":0,"MEAN_MOTION_DOT":-1.2e-6,"MEAN_MOTION_DDOT":0},{"OBJECT_NAME":"SES-19","OBJECT_ID":"2023-038B","EPOCH":"2026-03-28T12:23:38.721696","MEAN_MOTION":1.00273053,"ECCENTRICITY":0.0001829,"INCLINATION":0.0423,"RA_OF_ASC_NODE":278.2394,"ARG_OF_PERICENTER":82.7197,"MEAN_ANOMALY":235.9764,"EPHEMERIS_TYPE":0,"CLASSIFICATION_TYPE":"U","NORAD_CAT_ID":55971,"ELEMENT_SET_NO":999,"REV_AT_EPOCH":1127,"BSTAR":0,"MEAN_MOTION_DOT":6.8e-7,"MEAN_MOTION_DDOT":0},{"OBJECT_NAME":"O3B MPOWER F4","OBJECT_ID":"2023-059A","EPOCH":"2026-03-27T19:39:18.085248","MEAN_MOTION":5.00116069,"ECCENTRICITY":0.0006938,"INCLINATION":0.0636,"RA_OF_ASC_NODE":5.1501,"ARG_OF_PERICENTER":15.6924,"MEAN_ANOMALY":339.1813,"EPHEMERIS_TYPE":0,"CLASSIFICATION_TYPE":"U","NORAD_CAT_ID":56367,"ELEMENT_SET_NO":999,"REV_AT_EPOCH":5453,"BSTAR":0,"MEAN_MOTION_DOT":-2.8e-7,"MEAN_MOTION_DDOT":0},{"OBJECT_NAME":"O3B MPOWER F3","OBJECT_ID":"2023-059B","EPOCH":"2026-03-28T06:02:56.942880","MEAN_MOTION":5.00116702,"ECCENTRICITY":0.0006572,"INCLINATION":0.0649,"RA_OF_ASC_NODE":5.1389,"ARG_OF_PERICENTER":5.5978,"MEAN_ANOMALY":349.2727,"EPHEMERIS_TYPE":0,"CLASSIFICATION_TYPE":"U","NORAD_CAT_ID":56368,"ELEMENT_SET_NO":999,"REV_AT_EPOCH":5067,"BSTAR":0,"MEAN_MOTION_DOT":-2.9e-7,"MEAN_MOTION_DDOT":0},{"OBJECT_NAME":"O3B MPOWER F5","OBJECT_ID":"2023-175A","EPOCH":"2026-03-27T18:04:23.008512","MEAN_MOTION":5.00115692,"ECCENTRICITY":0.00042246,"INCLINATION":0.042,"RA_OF_ASC_NODE":7.5811,"ARG_OF_PERICENTER":7.1636,"MEAN_ANOMALY":345.263,"EPHEMERIS_TYPE":0,"CLASSIFICATION_TYPE":"U","NORAD_CAT_ID":58346,"ELEMENT_SET_NO":999,"REV_AT_EPOCH":4536,"BSTAR":0,"MEAN_MOTION_DOT":-2.8e-7,"MEAN_MOTION_DDOT":0},{"OBJECT_NAME":"O3B MPOWER F6","OBJECT_ID":"2023-175B","EPOCH":"2026-03-28T10:52:55.398144","MEAN_MOTION":5.00116355,"ECCENTRICITY":0.0004933,"INCLINATION":0.0497,"RA_OF_ASC_NODE":4.8139,"ARG_OF_PERICENTER":350.3738,"MEAN_ANOMALY":4.8029,"EPHEMERIS_TYPE":0,"CLASSIFICATION_TYPE":"U","NORAD_CAT_ID":58347,"ELEMENT_SET_NO":999,"REV_AT_EPOCH":4430,"BSTAR":0,"MEAN_MOTION_DOT":-2.9e-7,"MEAN_MOTION_DDOT":0},{"OBJECT_NAME":"ASTRA 1P (SES-24)","OBJECT_ID":"2024-115A","EPOCH":"2026-03-28T13:09:52.132320","MEAN_MOTION":1.00271876,"ECCENTRICITY":0.00038027,"INCLINATION":0.0627,"RA_OF_ASC_NODE":14.9722,"ARG_OF_PERICENTER":303.7059,"MEAN_ANOMALY":83.9273,"EPHEMERIS_TYPE":0,"CLASSIFICATION_TYPE":"U","NORAD_CAT_ID":60086,"ELEMENT_SET_NO":999,"REV_AT_EPOCH":638,"BSTAR":0,"MEAN_MOTION_DOT":1.0e-6,"MEAN_MOTION_DDOT":0},{"OBJECT_NAME":"O3B MPOWER F7","OBJECT_ID":"2024-244A","EPOCH":"2026-03-28T12:28:16.056192","MEAN_MOTION":5.00115127,"ECCENTRICITY":0.00061043,"INCLINATION":0.0716,"RA_OF_ASC_NODE":2.0186,"ARG_OF_PERICENTER":3.622,"MEAN_ANOMALY":354.3616,"EPHEMERIS_TYPE":0,"CLASSIFICATION_TYPE":"U","NORAD_CAT_ID":62362,"ELEMENT_SET_NO":999,"REV_AT_EPOCH":2248,"BSTAR":0,"MEAN_MOTION_DOT":-2.9e-7,"MEAN_MOTION_DDOT":0},{"OBJECT_NAME":"O3B MPOWER F8","OBJECT_ID":"2024-244B","EPOCH":"2026-03-28T11:40:41.433888","MEAN_MOTION":5.00115612,"ECCENTRICITY":0.00064528,"INCLINATION":0.044,"RA_OF_ASC_NODE":315.4923,"ARG_OF_PERICENTER":42.9746,"MEAN_ANOMALY":1.5264,"EPHEMERIS_TYPE":0,"CLASSIFICATION_TYPE":"U","NORAD_CAT_ID":62363,"ELEMENT_SET_NO":999,"REV_AT_EPOCH":1683,"BSTAR":0,"MEAN_MOTION_DOT":-2.9e-7,"MEAN_MOTION_DDOT":0}]
